{"type": "FeatureCollection", "features": [ {"type": "Feature", "properties": {"norad_id": 33917, "name": "COSMOS 2251 DEB", "group": "cosmos-2251-debris", "lat": -36.5182679741715, "lon": -68.10331874723936, "alt_km": 777.7636058335484, "timestamp": "2025-12-26T13:39:19.372958+00:00", "meta": {"OBJECT_NAME": "COSMOS 2251 DEB", "OBJECT_ID": "1993-036DW", "EPOCH": "2025-12-25T17:18:27.771264", "MEAN_MOTION": 13.6938971, "ECCENTRICITY": 0.03311389, "INCLINATION": 74.1073, "RA_OF_ASC_NODE": 101.1083, "ARG_OF_PERICENTER": 199.2418, "MEAN_ANOMALY": 159.5953, "EPHEMERIS_TYPE": 0, "CLASSIFICATION_TYPE": "U", "NORAD_CAT_ID": 33917, "ELEMENT_SET_NO": 999, "REV_AT_EPOCH": 83911, "BSTAR": 0.0010734281, "MEAN_MOTION_DOT": 1.349e-05, "MEAN_MOTION_DDOT": 0}, "tle": {"line1": "1 33917U 93036DW  25359.72115476  .00001349  00000+0  10734-2 0  9994", "line2": "2 33917  74.1073 101.1083 0331138 199.2418 159.5953 13.69389710839110"}}, "geometry": {"type": "Point", "coordinates": [-68.10331874723936, -36.5182679741715]}}, {"type": "Feature", "properties": {"norad_id": 33920, "name": "COSMOS 2251 DEB", "group": "cosmos-2251-debris", "lat": 44.04352802686208, "lon": -71.80832069044314, "alt_km": 711.0826313451498, "timestamp": "2025-12-26T13:39:19.372968+00:00", "meta": {"OBJECT_NAME": "COSMOS 2251 DEB", "OBJECT_ID": "1993-036DZ", "EPOCH": "2025-12-25T19:20:05.558496", "MEAN_MOTION": 14.58472232, "ECCENTRICITY": 0.00376879, "INCLINATION": 74.061, "RA_OF_ASC_NODE": 273.5967, "ARG_OF_PERICENTER": 278.0618, "MEAN_ANOMALY": 81.6272, "EPHEMERIS_TYPE": 0, "CLASSIFICATION_TYPE": "U", "NORAD_CAT_ID": 33920, "ELEMENT_SET_NO": 999, "REV_AT_EPOCH": 88305, "BSTAR": 0.0016700668, "MEAN_MOTION_DOT": 7.807e-05, "MEAN_MOTION_DDOT": 0}, "tle": {"line1": "1 33920U 93036DZ  25359.80561989  .00007807  00000+0  16701-2 0  9996", "line2": "2 33920  74.0610 273.5967 0037687 278.0618  81.6272 14.58472232883057"}}, "geometry": {"type": "Point", "coordinates": [-71.80832069044314, 44.04352802686208]}}, {"type": "Feature", "properties": {"norad_id": 33922, "name": "COSMOS 2251 DEB", "group": "cosmos-2251-debris", "lat": 66.34083696802193, "lon": -98.9263079682659, "alt_km": 729.2249815619452, "timestamp": "2025-12-26T13:39:19.373001+00:00", "meta": {"OBJECT_NAME": "COSMOS 2251 DEB", "OBJECT_ID": "1993-036EB", "EPOCH": "2025-12-25T19:31:12.971712", "MEAN_MOTION": 14.49555987, "ECCENTRICITY": 0.0023093, "INCLINATION": 74.0471, "RA_OF_ASC_NODE": 123.2498, "ARG_OF_PERICENTER": 232.4585, "MEAN_ANOMALY": 253.8509, "EPHEMERIS_TYPE": 0, "CLASSIFICATION_TYPE": "U", "NORAD_CAT_ID": 33922, "ELEMENT_SET_NO": 999, "REV_AT_EPOCH": 88767, "BSTAR": 0.00055201276, "MEAN_MOTION_DOT": 2.098e-05, "MEAN_MOTION_DDOT": 0}, "tle": {"line1": "1 33922U 93036EB  25359.81334458  .00002098  00000+0  55201-3 0  9994", "line2": "2 33922  74.0471 123.2498 0023093 232.4585 253.8509 14.49555987887674"}}, "geometry": {"type": "Point", "coordinates": [-98.9263079682659, 66.34083696802193]}}, {"type": "Feature", "properties": {"norad_id": 33924, "name": "COSMOS 2251 DEB", "group": "cosmos-2251-debris", "lat": 41.38924651629988, "lon": 53.23995256335092, "alt_km": 1308.4285854882291, "timestamp": "2025-12-26T13:39:19.373014+00:00", "meta": {"OBJECT_NAME": "COSMOS 2251 DEB", "OBJECT_ID": "1993-036ED", "EPOCH": "2025-12-26T02:16:38.971200", "MEAN_MOTION": 13.5024041, "ECCENTRICITY": 0.04037748, "INCLINATION": 73.9129, "RA_OF_ASC_NODE": 248.7342, "ARG_OF_PERICENTER": 281.827, "MEAN_ANOMALY": 73.7826, "EPHEMERIS_TYPE": 0, "CLASSIFICATION_TYPE": "U", "NORAD_CAT_ID": 33924, "ELEMENT_SET_NO": 999, "REV_AT_EPOCH": 82919, "BSTAR": 0.0004135981, "MEAN_MOTION_DOT": 4.14e-06, "MEAN_MOTION_DDOT": 0}, "tle": {"line1": "1 33924U 93036ED  25360.09489550  .00000414  00000+0  41360-3 0  9993", "line2": "2 33924  73.9129 248.7342 0403774 281.8270  73.7826 13.50240410829199"}}, "geometry": {"type": "Point", "coordinates": [53.23995256335092, 41.38924651629988]}}, {"type": "Feature", "properties": {"norad_id": 33928, "name": "COSMOS 2251 DEB", "group": "cosmos-2251-debris", "lat": -24.9217425213429, "lon": -145.77294858164495, "alt_km": 755.5453728426137, "timestamp": "2025-12-26T13:39:19.373025+00:00", "meta": {"OBJECT_NAME": "COSMOS 2251 DEB", "OBJECT_ID": "1993-036EH", "EPOCH": "2025-12-26T02:44:57.438816", "MEAN_MOTION": 14.47429117, "ECCENTRICITY": 0.00620808, "INCLINATION": 73.9252, "RA_OF_ASC_NODE": 27.3827, "ARG_OF_PERICENTER": 318.8033, "MEAN_ANOMALY": 40.8447, "EPHEMERIS_TYPE": 0, "CLASSIFICATION_TYPE": "U", "NORAD_CAT_ID": 33928, "ELEMENT_SET_NO": 999, "REV_AT_EPOCH": 88838, "BSTAR": 0.00025718018, "MEAN_MOTION_DOT": 9.37e-06, "MEAN_MOTION_DDOT": 0}, "tle": {"line1": "1 33928U 93036EH  25360.11455369  .00000937  00000+0  25718-3 0  9990", "line2": "2 33928  73.9252  27.3827 0062080 318.8033  40.8447 14.47429117888388"}}, "geometry": {"type": "Point", "coordinates": [-145.77294858164495, -24.9217425213429]}}, {"type": "Feature", "properties": {"norad_id": 33932, "name": "COSMOS 2251 DEB", "group": "cosmos-2251-debris", "lat": -73.62546799764668, "lon": -146.57219574481783, "alt_km": 769.1968634750638, "timestamp": "2025-12-26T13:39:19.373036+00:00", "meta": {"OBJECT_NAME": "COSMOS 2251 DEB", "OBJECT_ID": "1993-036EM", "EPOCH": "2025-12-26T05:42:38.676096", "MEAN_MOTION": 14.3879706, "ECCENTRICITY": 0.00360166, "INCLINATION": 74.0343, "RA_OF_ASC_NODE": 291.0216, "ARG_OF_PERICENTER": 4.0198, "MEAN_ANOMALY": 356.1238, "EPHEMERIS_TYPE": 0, "CLASSIFICATION_TYPE": "U", "NORAD_CAT_ID": 33932, "ELEMENT_SET_NO": 999, "REV_AT_EPOCH": 88192, "BSTAR": 0.0004974549, "MEAN_MOTION_DOT": 1.514e-05, "MEAN_MOTION_DDOT": 0}, "tle": {"line1": "1 33932U 93036EM  25360.23794764  .00001514  00000+0  49745-3 0  9991", "line2": "2 33932  74.0343 291.0216 0036016   4.0198 356.1238 14.38797060881923"}}, "geometry": {"type": "Point", "coordinates": [-146.57219574481783, -73.62546799764668]}}, {"type": "Feature", "properties": {"norad_id": 33933, "name": "COSMOS 2251 DEB", "group": "cosmos-2251-debris", "lat": -38.080073046724976, "lon": -132.15318304246003, "alt_km": 836.9519425261251, "timestamp": "2025-12-26T13:39:19.373047+00:00", "meta": {"OBJECT_NAME": "COSMOS 2251 DEB", "OBJECT_ID": "1993-036EN", "EPOCH": "2025-12-26T04:15:40.522176", "MEAN_MOTION": 14.33509309, "ECCENTRICITY": 0.00710597, "INCLINATION": 74.0887, "RA_OF_ASC_NODE": 35.6448, "ARG_OF_PERICENTER": 40.0619, "MEAN_ANOMALY": 320.5742, "EPHEMERIS_TYPE": 0, "CLASSIFICATION_TYPE": "U", "NORAD_CAT_ID": 33933, "ELEMENT_SET_NO": 999, "REV_AT_EPOCH": 87977, "BSTAR": 0.00028180399, "MEAN_MOTION_DOT": 7.76e-06, "MEAN_MOTION_DDOT": 0}, "tle": {"line1": "1 33933U 93036EN  25360.17755234  .00000776  00000+0  28180-3 0  9993", "line2": "2 33933  74.0887  35.6448 0071059  40.0619 320.5742 14.33509309879777"}}, "geometry": {"type": "Point", "coordinates": [-132.15318304246003, -38.080073046724976]}}, {"type": "Feature", "properties": {"norad_id": 33934, "name": "COSMOS 2251 DEB", "group": "cosmos-2251-debris", "lat": 6.692735147069093, "lon": -107.70245091994192, "alt_km": 687.7307014450735, "timestamp": "2025-12-26T13:39:19.373057+00:00", "meta": {"OBJECT_NAME": "COSMOS 2251 DEB", "OBJECT_ID": "1993-036EP", "EPOCH": "2025-12-25T15:28:29.335008", "MEAN_MOTION": 14.59210622, "ECCENTRICITY": 0.0015061, "INCLINATION": 74.0379, "RA_OF_ASC_NODE": 75.9826, "ARG_OF_PERICENTER": 199.4806, "MEAN_ANOMALY": 160.5785, "EPHEMERIS_TYPE": 0, "CLASSIFICATION_TYPE": "U", "NORAD_CAT_ID": 33934, "ELEMENT_SET_NO": 999, "REV_AT_EPOCH": 88927, "BSTAR": 0.00087963, "MEAN_MOTION_DOT": 4.129e-05, "MEAN_MOTION_DDOT": 0}, "tle": {"line1": "1 33934U 93036EP  25359.64478397  .00004129  00000+0  87963-3 0  9996", "line2": "2 33934  74.0379  75.9826 0015061 199.4806 160.5785 14.59210622889279"}}, "geometry": {"type": "Point", "coordinates": [-107.70245091994192, 6.692735147069093]}}, {"type": "Feature", "properties": {"norad_id": 33936, "name": "COSMOS 2251 DEB", "group": "cosmos-2251-debris", "lat": 20.90080187130223, "lon": -175.23185386263435, "alt_km": 672.847277023795, "timestamp": "2025-12-26T13:39:19.373068+00:00", "meta": {"OBJECT_NAME": "COSMOS 2251 DEB", "OBJECT_ID": "1993-036ER", "EPOCH": "2025-12-26T03:04:09.810048", "MEAN_MOTION": 14.60349671, "ECCENTRICITY": 0.0026636, "INCLINATION": 74.0181, "RA_OF_ASC_NODE": 11.8941, "ARG_OF_PERICENTER": 164.036, "MEAN_ANOMALY": 196.1652, "EPHEMERIS_TYPE": 0, "CLASSIFICATION_TYPE": "U", "NORAD_CAT_ID": 33936, "ELEMENT_SET_NO": 999, "REV_AT_EPOCH": 89085, "BSTAR": 0.00061889754, "MEAN_MOTION_DOT": 2.979e-05, "MEAN_MOTION_DDOT": 0}, "tle": {"line1": "1 33936U 93036ER  25360.12789132  .00002979  00000+0  61890-3 0  9997", "line2": "2 33936  74.0181  11.8941 0026636 164.0360 196.1652 14.60349671890855"}}, "geometry": {"type": "Point", "coordinates": [-175.23185386263435, 20.90080187130223]}}, {"type": "Feature", "properties": {"norad_id": 33938, "name": "COSMOS 2251 DEB", "group": "cosmos-2251-debris", "lat": 56.669575990722116, "lon": -152.85491380350228, "alt_km": 741.3054965666479, "timestamp": "2025-12-26T13:39:19.373079+00:00", "meta": {"OBJECT_NAME": "COSMOS 2251 DEB", "OBJECT_ID": "1993-036ET", "EPOCH": "2025-12-25T22:59:46.505760", "MEAN_MOTION": 14.4683273, "ECCENTRICITY": 0.0016796, "INCLINATION": 74.0436, "RA_OF_ASC_NODE": 182.4964, "ARG_OF_PERICENTER": 263.6262, "MEAN_ANOMALY": 216.596, "EPHEMERIS_TYPE": 0, "CLASSIFICATION_TYPE": "U", "NORAD_CAT_ID": 33938, "ELEMENT_SET_NO": 999, "REV_AT_EPOCH": 88591, "BSTAR": 0.00043301, "MEAN_MOTION_DOT": 1.545e-05, "MEAN_MOTION_DDOT": 0}, "tle": {"line1": "1 33938U 93036ET  25359.95817715  .00001545  00000+0  43301-3 0  9992", "line2": "2 33938  74.0436 182.4964 0016796 263.6262 216.5960 14.46832730885910"}}, "geometry": {"type": "Point", "coordinates": [-152.85491380350228, 56.669575990722116]}}]}